ONEWEB-0620             
1 55161U 23004X   25199.41613687 -.00000428  00000+0 -12436-2 0  9992
2 55161  87.8824  87.6224 0001791  70.2123 289.9198 13.11417508122089
ONEWEB-0621             
1 55162U 23004Y   25199.44326718  .00000500  00000+0  13740-2 0  9990
2 55162  87.8819  87.5734 0001670  85.0537 275.0782 13.11418816122064
ONEWEB-0622             
1 55163U 23004Z   25199.44835814  .00000478  00000+0  13122-2 0  9991
2 55163  87.8820  87.5960 0001104  68.7668 291.3578 13.11416188122056
ONEWEB-0623             
1 55164U 23004AA  25199.58243512  .00000012  00000+0 -16966-5 0  9992
2 55164  87.9047  72.3006 0001131  94.5009 265.6252 13.17649043123652
ONEWEB-0624             
1 55165U 23004AB  25199.85594586 -.00000261  00000+0 -75577-3 0  9991
2 55165  87.8860  56.9329 0001727  84.7809 275.3517 13.12941650124333
ONEWEB-0625             
1 55166U 23004AC  25199.87603449  .00000122  00000+0  28167-3 0  9990
2 55166  87.9049  72.2388 0001930  82.0159 278.1191 13.17647737123685
ONEWEB-0626             
1 55167U 23004AD  25199.41031094  .00000026  00000+0  33007-4 0  9995
2 55167  87.9050  72.3304 0002072  66.2195 293.9153 13.17650173123624
ONEWEB-0627             
1 55168U 23004AE  25199.62630451 -.00000007  00000+0 -51872-4 0  9992
2 55168  87.9041  72.2894 0001188  84.2400 275.8867 13.17647333123652
